{
"type": "FeatureCollection",
"name": "Gwampa_forest",
"crs": { "type": "name", "properties": { "name": "urn:ogc:def:crs:EPSG::3857" } },
"features": [
{ "type": "Feature", "properties": { "fid": 3032, "OBJECTID": 4919, "WDPAID": 20344, "WDPA_PID": "20344", "PA_DEF": "1", "NAME": "Gwampa", "ORIG_NAME": "Gwampa", "DESIG": "State Forest", "DESIG_ENG": "State Forest", "DESIG_TYPE": "National", "IUCN_CAT": "Not Reported", "INT_CRIT": "Not Applicable", "MARINE": "0", "REP_M_AREA": 0.0, "GIS_M_AREA": 0.0, "REP_AREA": 470.0, "GIS_AREA": 422.70921557700001, "NO_TAKE": "Not Applicable", "NO_TK_AREA": 0.0, "STATUS": "Designated", "STATUS_YR": 1941, "GOV_TYPE": "Not Reported", "OWN_TYPE": "Not Reported", "MANG_AUTH": "Not Reported", "MANG_PLAN": "Not Reported", "VERIF": "State Verified", "METADATAID": 1829, "SUB_LOC": "ZW-MN", "PARENT_ISO": "ZWE", "ISO3": "ZWE", "SUPP_INFO": "Not Applicable", "CONS_OBJ": "Not Applicable", "Shape__Are": 473908023.32470703, "Shape__Len": 125807.24875207529 }, "geometry": { "type": "MultiPolygon", "coordinates": [ [ [ [ 3166057.675159839913249, -2173716.414688509888947 ], [ 3166082.165447819977999, -2163873.951411929912865 ], [ 3166728.931689320132136, -2164252.053353569936007 ], [ 3167266.604829859919846, -2164494.702072880230844 ], [ 3167805.391165299806744, -2165169.658315409906209 ], [ 3168128.217688589822501, -2165494.776462940033525 ], [ 3168505.590762389823794, -2166035.474080440122634 ], [ 3169124.527131199836731, -2166387.701290700118989 ], [ 3170390.229741519782692, -2166684.566624059807509 ], [ 3171655.932351840194315, -2167035.627495789900422 ], [ 3172410.678388089872897, -2167359.598675789777189 ], [ 3172867.088411670178175, -2167493.90103502990678 ], [ 3173164.311452089808881, -2167603.464171589817852 ], [ 3173567.288008760195225, -2167683.575242009945214 ], [ 3173998.094438130035996, -2167656.478813679888844 ], [ 3174456.730740199796855, -2167466.804870469961315 ], [ 3174913.140652449801564, -2167195.845297120045871 ], [ 3175505.360343469772488, -2167006.17583737988025 ], [ 3176744.346275989897549, -2167086.284452349878848 ], [ 3177713.939040800090879, -2167328.968442779965699 ], [ 3178414.138637899886817, -2167680.040923129767179 ], [ 3179626.408003950025886, -2168193.701991099864244 ], [ 3181081.353637299966067, -2168950.080790170002729 ], [ 3182265.793019339907914, -2169625.191353720147163 ], [ 3183478.06227407976985, -2170002.226638259831816 ], [ 3184635.784978330135345, -2170272.046997049823403 ], [ 3185794.620877489913255, -2170486.492046149913222 ], [ 3186682.950414020102471, -2170756.319119079969823 ], [ 3187788.352957599796355, -2171133.376318269874901 ], [ 3188597.645655670203269, -2171645.950167759787291 ], [ 3189593.955098260194063, -2172402.463149690069258 ], [ 3190592.490930680185556, -2173186.109656339976937 ], [ 3191751.326829839963466, -2174049.925042809918523 ], [ 3192856.729373409878463, -2174615.609404239803553 ], [ 3194150.261856430210173, -2174857.208786619827151 ], [ 3196089.447386050131172, -2174909.06465549999848 ], [ 3197571.109808510169387, -2175123.560856590047479 ], [ 3198756.662385459989309, -2175228.452718460001051 ], [ 3201665.440679890103638, -2175305.059492390137166 ], [ 3202553.770216419827193, -2175411.130909 ], [ 3203093.669746770057827, -2175572.596288729924709 ], [ 3204144.525739850010723, -2175787.099818659946322 ], [ 3205006.138598590157926, -2175784.742624130100012 ], [ 3206594.667843529954553, -2175755.277716720011085 ], [ 3207753.503631370142102, -2175778.849639070220292 ], [ 3209155.016020460054278, -2176100.609240559861064 ], [ 3210421.831825680099428, -2176503.700222359970212 ], [ 3211473.801013680174947, -2176906.799575069919229 ], [ 3212256.377033960074186, -2177392.415762050077319 ], [ 3213227.082993680145591, -2177768.42305117007345 ], [ 3214197.788953389972448, -2178171.548678600229323 ], [ 3214952.5351009699516, -2178440.303751380182803 ], [ 3215654.961087869945914, -2178898.846223299857229 ], [ 3215952.184128290042281, -2179250.127739950083196 ], [ 3216006.730678789783269, -2179601.415621399879456 ], [ 3216006.730678789783269, -2179655.64183467021212 ], [ 3215874.260484740138054, -2180169.619563309941441 ], [ 3215712.847223090007901, -2180467.874357319902629 ], [ 3215472.397122980095446, -2180955.937559030018747 ], [ 3215365.530411810148507, -2181227.089094830211252 ], [ 3215717.300002720206976, -2182011.092062159907073 ], [ 3216094.673076509963721, -2182335.313091970048845 ], [ 3216987.455392669886351, -2183387.005583810154349 ], [ 3217340.338178489822894, -2184225.335037239827216 ], [ 3217369.28124608984217, -2184659.252592689823359 ], [ 3209969.874693059828132, -2189604.006496159825474 ], [ 3175135.779634030070156, -2175283.845278580207378 ], [ 3166057.675159839913249, -2173716.414688509888947 ] ] ] ] } }
]
}
